{"type": "FeatureCollection", "features": [ {"type": "Feature", "properties": {"norad_id": 44543, "name": "BEIDOU-3 M23 (C45)", "group": "beidou", "lat": -28.83134344606951, "lon": 166.06562263040854, "alt_km": 21523.40607306148, "timestamp": "2025-12-03T20:47:58.489063+00:00", "meta": {"OBJECT_NAME": "BEIDOU-3 M23 (C45)", "OBJECT_ID": "2019-061B", "EPOCH": "2025-12-03T02:07:58.152000", "MEAN_MOTION": 1.86227295, "ECCENTRICITY": 0.00061844, "INCLINATION": 54.3988, "RA_OF_ASC_NODE": 189.3106, "ARG_OF_PERICENTER": 23.3058, "MEAN_ANOMALY": 139.0026, "EPHEMERIS_TYPE": 0, "CLASSIFICATION_TYPE": "U", "NORAD_CAT_ID": 44543, "ELEMENT_SET_NO": 999, "REV_AT_EPOCH": 4214, "BSTAR": 0, "MEAN_MOTION_DOT": 1.18e-06, "MEAN_MOTION_DDOT": 0}, "tle": {"line1": "1 44543U 19061B   25337.08886750  .00000118  00000+0  00000+0 0  9997", "line2": "2 44543  54.3988 189.3106 0006184  23.3058 139.0026  1.86227295 42141"}}, "geometry": {"type": "Point", "coordinates": [166.06562263040854, -28.83134344606951]}}, {"type": "Feature", "properties": {"norad_id": 44709, "name": "BEIDOU-3 IGSO-3 (C40)", "group": "beidou", "lat": -29.196192509343526, "lon": 125.84803012909826, "alt_km": 35627.047749643694, "timestamp": "2025-12-03T20:47:58.489075+00:00", "meta": {"OBJECT_NAME": "BEIDOU-3 IGSO-3 (C40)", "OBJECT_ID": "2019-073A", "EPOCH": "2025-11-20T07:11:22.740000", "MEAN_MOTION": 1.00250097, "ECCENTRICITY": 0.0044538, "INCLINATION": 55.163, "RA_OF_ASC_NODE": 283.159, "ARG_OF_PERICENTER": 191.5856, "MEAN_ANOMALY": 168.2409, "EPHEMERIS_TYPE": 0, "CLASSIFICATION_TYPE": "U", "NORAD_CAT_ID": 44709, "ELEMENT_SET_NO": 999, "REV_AT_EPOCH": 2236, "BSTAR": 0, "MEAN_MOTION_DOT": -2.06e-06, "MEAN_MOTION_DDOT": 0}, "tle": {"line1": "1 44709U 19073A   25324.29956875 -.00000206  00000+0  00000+0 0  9998", "line2": "2 44709  55.1630 283.1590 0044538 191.5856 168.2409  1.00250097 22360"}}, "geometry": {"type": "Point", "coordinates": [125.84803012909826, -29.196192509343526]}}, {"type": "Feature", "properties": {"norad_id": 44793, "name": "BEIDOU-3 M22 (C44)", "group": "beidou", "lat": 17.560454069592634, "lon": 113.43839893913176, "alt_km": 21537.069706854392, "timestamp": "2025-12-03T20:47:58.489090+00:00", "meta": {"OBJECT_NAME": "BEIDOU-3 M22 (C44)", "OBJECT_ID": "2019-078A", "EPOCH": "2025-12-02T00:28:58.554624", "MEAN_MOTION": 1.86231817, "ECCENTRICITY": 0.00056333, "INCLINATION": 54.1183, "RA_OF_ASC_NODE": 306.7625, "ARG_OF_PERICENTER": 22.616, "MEAN_ANOMALY": 337.398, "EPHEMERIS_TYPE": 0, "CLASSIFICATION_TYPE": "U", "NORAD_CAT_ID": 44793, "ELEMENT_SET_NO": 999, "REV_AT_EPOCH": 4097, "BSTAR": 0, "MEAN_MOTION_DOT": -6.1e-07, "MEAN_MOTION_DDOT": 0}, "tle": {"line1": "1 44793U 19078A   25336.02012216 -.00000061  00000+0  00000+0 0  9991", "line2": "2 44793  54.1183 306.7625 0005633  22.6160 337.3980  1.86231817 40974"}}, "geometry": {"type": "Point", "coordinates": [113.43839893913176, 17.560454069592634]}}, {"type": "Feature", "properties": {"norad_id": 44794, "name": "BEIDOU-3 M21 (C43)", "group": "beidou", "lat": 47.67579440397058, "lon": -0.6739681685401928, "alt_km": 21516.633182869507, "timestamp": "2025-12-03T20:47:58.489102+00:00", "meta": {"OBJECT_NAME": "BEIDOU-3 M21 (C43)", "OBJECT_ID": "2019-078B", "EPOCH": "2025-12-01T02:00:26.030304", "MEAN_MOTION": 1.86227539, "ECCENTRICITY": 0.00038706, "INCLINATION": 54.0922, "RA_OF_ASC_NODE": 306.7607, "ARG_OF_PERICENTER": 10.0971, "MEAN_ANOMALY": 349.9036, "EPHEMERIS_TYPE": 0, "CLASSIFICATION_TYPE": "U", "NORAD_CAT_ID": 44794, "ELEMENT_SET_NO": 999, "REV_AT_EPOCH": 4096, "BSTAR": 0, "MEAN_MOTION_DOT": -5.7e-07, "MEAN_MOTION_DDOT": 0}, "tle": {"line1": "1 44794U 19078B   25335.08363461 -.00000057  00000+0  00000+0 0  9993", "line2": "2 44794  54.0922 306.7607 0003870  10.0971 349.9036  1.86227539 40963"}}, "geometry": {"type": "Point", "coordinates": [-0.6739681685401928, 47.67579440397058]}}, {"type": "Feature", "properties": {"norad_id": 44864, "name": "BEIDOU-3 M19 (C41)", "group": "beidou", "lat": -55.4658247505651, "lon": -35.91576044436288, "alt_km": 21489.11762498325, "timestamp": "2025-12-03T20:47:58.489114+00:00", "meta": {"OBJECT_NAME": "BEIDOU-3 M19 (C41)", "OBJECT_ID": "2019-090A", "EPOCH": "2025-12-02T22:27:31.551840", "MEAN_MOTION": 1.86231053, "ECCENTRICITY": 0.00175607, "INCLINATION": 56.3847, "RA_OF_ASC_NODE": 69.2872, "ARG_OF_PERICENTER": 284.9296, "MEAN_ANOMALY": 72.494, "EPHEMERIS_TYPE": 0, "CLASSIFICATION_TYPE": "U", "NORAD_CAT_ID": 44864, "ELEMENT_SET_NO": 999, "REV_AT_EPOCH": 4057, "BSTAR": 0, "MEAN_MOTION_DOT": -4.9e-07, "MEAN_MOTION_DDOT": 0}, "tle": {"line1": "1 44864U 19090A   25336.93578185 -.00000049  00000+0  00000+0 0  9992", "line2": "2 44864  56.3847  69.2872 0017560 284.9296  72.4940  1.86231053 40575"}}, "geometry": {"type": "Point", "coordinates": [-35.91576044436288, -55.4658247505651]}}, {"type": "Feature", "properties": {"norad_id": 44865, "name": "BEIDOU-3 M20 (C42)", "group": "beidou", "lat": -7.266281606825578, "lon": 64.43486721439756, "alt_km": 21504.952860964513, "timestamp": "2025-12-03T20:47:58.489126+00:00", "meta": {"OBJECT_NAME": "BEIDOU-3 M20 (C42)", "OBJECT_ID": "2019-090B", "EPOCH": "2025-12-02T19:15:49.919904", "MEAN_MOTION": 1.86231044, "ECCENTRICITY": 0.00146831, "INCLINATION": 56.3861, "RA_OF_ASC_NODE": 69.3259, "ARG_OF_PERICENTER": 297.6742, "MEAN_ANOMALY": 60.1134, "EPHEMERIS_TYPE": 0, "CLASSIFICATION_TYPE": "U", "NORAD_CAT_ID": 44865, "ELEMENT_SET_NO": 999, "REV_AT_EPOCH": 4055, "BSTAR": 0, "MEAN_MOTION_DOT": -4.8e-07, "MEAN_MOTION_DDOT": 0}, "tle": {"line1": "1 44865U 19090B   25336.80266111 -.00000048  00000+0  00000+0 0  9991", "line2": "2 44865  56.3861  69.3259 0014683 297.6742  60.1134  1.86231044 40559"}}, "geometry": {"type": "Point", "coordinates": [64.43486721439756, -7.266281606825578]}}, {"type": "Feature", "properties": {"norad_id": 45344, "name": "BEIDOU-3 G2 (C60)", "group": "beidou", "lat": 2.6352961671531365, "lon": 104.96207441421451, "alt_km": 35804.18190552135, "timestamp": "2025-12-03T20:47:58.489138+00:00", "meta": {"OBJECT_NAME": "BEIDOU-3 G2 (C60)", "OBJECT_ID": "2020-017A", "EPOCH": "2025-12-03T10:42:45.708768", "MEAN_MOTION": 1.00270294, "ECCENTRICITY": 0.0004622, "INCLINATION": 2.9825, "RA_OF_ASC_NODE": 43.5644, "ARG_OF_PERICENTER": 263.7837, "MEAN_ANOMALY": 5.9314, "EPHEMERIS_TYPE": 0, "CLASSIFICATION_TYPE": "U", "NORAD_CAT_ID": 45344, "ELEMENT_SET_NO": 999, "REV_AT_EPOCH": 2129, "BSTAR": 0, "MEAN_MOTION_DOT": -1.25e-06, "MEAN_MOTION_DDOT": 0}, "tle": {"line1": "1 45344U 20017A   25337.44636237 -.00000125  00000+0  00000+0 0  9992", "line2": "2 45344   2.9825  43.5644 0004622 263.7837   5.9314  1.00270294 21295"}}, "geometry": {"type": "Point", "coordinates": [104.96207441421451, 2.6352961671531365]}}, {"type": "Feature", "properties": {"norad_id": 45807, "name": "BEIDOU-3 G3 (C61)", "group": "beidou", "lat": 1.8398712120209828, "lon": 135.4594146863254, "alt_km": 35799.01349186993, "timestamp": "2025-12-03T20:47:58.489151+00:00", "meta": {"OBJECT_NAME": "BEIDOU-3 G3 (C61)", "OBJECT_ID": "2020-040A", "EPOCH": "2025-12-03T07:25:57.063936", "MEAN_MOTION": 1.00266653, "ECCENTRICITY": 0.00050047, "INCLINATION": 1.9665, "RA_OF_ASC_NODE": 66.5255, "ARG_OF_PERICENTER": 305.026, "MEAN_ANOMALY": 282.8478, "EPHEMERIS_TYPE": 0, "CLASSIFICATION_TYPE": "U", "NORAD_CAT_ID": 45807, "ELEMENT_SET_NO": 999, "REV_AT_EPOCH": 2010, "BSTAR": 0, "MEAN_MOTION_DOT": -3.35e-06, "MEAN_MOTION_DDOT": 0}, "tle": {"line1": "1 45807U 20040A   25337.30968824 -.00000335  00000+0  00000+0 0  9990", "line2": "2 45807   1.9665  66.5255 0005004 305.0260 282.8478  1.00266653 20108"}}, "geometry": {"type": "Point", "coordinates": [135.4594146863254, 1.8398712120209828]}}, {"type": "Feature", "properties": {"norad_id": 56564, "name": "BEIDOU-3 G4 (C62)", "group": "beidou", "lat": -0.76891398186269, "lon": -175.01213865290225, "alt_km": 35772.534463315744, "timestamp": "2025-12-03T20:47:58.489164+00:00", "meta": {"OBJECT_NAME": "BEIDOU-3 G4 (C62)", "OBJECT_ID": "2023-066A", "EPOCH": "2025-12-03T10:59:38.660640", "MEAN_MOTION": 1.00270959, "ECCENTRICITY": 0.0003342, "INCLINATION": 0.8366, "RA_OF_ASC_NODE": 301.2413, "ARG_OF_PERICENTER": 235.3331, "MEAN_ANOMALY": 220.9527, "EPHEMERIS_TYPE": 0, "CLASSIFICATION_TYPE": "U", "NORAD_CAT_ID": 56564, "ELEMENT_SET_NO": 999, "REV_AT_EPOCH": 943, "BSTAR": 0, "MEAN_MOTION_DOT": -9.2e-07, "MEAN_MOTION_DDOT": 0}, "tle": {"line1": "1 56564U 23066A   25337.45808635 -.00000092  00000+0  00000+0 0  9992", "line2": "2 56564   0.8366 301.2413 0003342 235.3331 220.9527  1.00270959  9433"}}, "geometry": {"type": "Point", "coordinates": [-175.01213865290225, -0.76891398186269]}}, {"type": "Feature", "properties": {"norad_id": 58654, "name": "BEIDOU-3 M28 (C50)", "group": "beidou", "lat": 10.997648845855533, "lon": 76.55045387405754, "alt_km": 21528.784389461343, "timestamp": "2025-12-03T20:47:58.489175+00:00", "meta": {"OBJECT_NAME": "BEIDOU-3 M28 (C50)", "OBJECT_ID": "2023-207A", "EPOCH": "2025-12-02T18:32:49.254720", "MEAN_MOTION": 1.86229565, "ECCENTRICITY": 0.00020071, "INCLINATION": 55.5759, "RA_OF_ASC_NODE": 68.9391, "ARG_OF_PERICENTER": 265.1815, "MEAN_ANOMALY": 94.7983, "EPHEMERIS_TYPE": 0, "CLASSIFICATION_TYPE": "U", "NORAD_CAT_ID": 58654, "ELEMENT_SET_NO": 999, "REV_AT_EPOCH": 1318, "BSTAR": 0, "MEAN_MOTION_DOT": -4.9e-07, "MEAN_MOTION_DDOT": 0}, "tle": {"line1": "1 58654U 23207A   25336.77279230 -.00000049  00000+0  00000+0 0  9990", "line2": "2 58654  55.5759  68.9391 0002007 265.1815  94.7983  1.86229565 13186"}}, "geometry": {"type": "Point", "coordinates": [76.55045387405754, 10.997648845855533]}}]}